H1 CPF 01  gfz 2022 06 01 12  6522 tandemx   
H2 1003001  6202 36605    2022 06 01 12 59 42 2022 06 06 00 00 42   120 1 1  0 0 0
H9
10 0 59731  79902.000000  0   -2290425.693   5426342.275  -3581309.729
10 0 59731  80022.000000  0   -1918124.410   5019719.049  -4318371.990
10 0 59731  80142.000000  0   -1520397.401   4519042.566  -4979785.635
10 0 59731  80262.000000  0   -1105762.965   3932736.668  -5554058.422
10 0 59731  80382.000000  0    -682855.690   3270839.074  -6031240.034
10 0 59731  80502.000000  0    -260249.358   2544821.511  -6403084.861
10 0 59731  80622.000000  0     153713.307   1767385.918  -6663182.085
10 0 59731  80742.000000  0     551080.346    952242.130  -6807055.761
10 0 59731  80862.000000  0     924439.190    113868.619  -6832234.023
10 0 59731  80982.000000  0    1267051.357   -732740.142  -6738286.587
10 0 59731  81102.000000  0    1572970.483  -1572335.712  -6526829.709
10 0 59731  81222.000000  0    1837143.081  -2389682.479  -6201501.258
10 0 59731  81342.000000  0    2055491.568  -3169827.559  -5767905.940
10 0 59731  81462.000000  0    2224977.607  -3898372.301  -5233530.231
10 0 59731  81582.000000  0    2343644.762  -4561739.622  -4607622.887
10 0 59731  81702.000000  0    2410639.020  -5147428.909  -3901045.128
10 0 59731  81822.000000  0    2426207.102  -5644257.795  -3126092.877
10 0 59731  81942.000000  0    2391672.266  -6042585.160  -2296290.205
10 0 59731  82062.000000  0    2309387.812  -6334509.459  -1426157.400
10 0 59731  82182.000000  0    2182667.914  -6514036.956   -530956.442
10 0 59731  82302.000000  0    2015698.867  -6577212.575    373582.415
10 0 59731  82422.000000  0    1813430.078  -6522210.828   1271543.094
10 0 59731  82542.000000  0    1581450.867  -6349386.628   2147112.772
10 0 59731  82662.000000  0    1325852.478  -6061278.828   2984870.666
10 0 59731  82782.000000  0    1053081.288  -5662570.428   3770066.621
10 0 59731  82902.000000  0     769786.622  -5160006.182   4488886.054
10 0 59731  83022.000000  0     482666.878  -4562270.827   5128695.449
10 0 59731  83142.000000  0     198317.102  -3879829.609   5678265.018
10 0 59731  83262.000000  0     -76916.561  -3124734.625   6127963.205
10 0 59731  83382.000000  0    -337073.587  -2310402.922   6469919.394
10 0 59731  83502.000000  0    -576704.279  -1451373.447   6698154.428
10 0 59731  83622.000000  0    -790980.799   -563045.453   6808680.108
10 0 59731  83742.000000  0    -975792.640    338599.045   6799565.696
10 0 59731  83862.000000  0   -1127824.852   1237283.150   6670969.488
10 0 59731  83982.000000  0   -1244617.074   2116728.404   6425135.953
10 0 59731  84102.000000  0   -1324603.281   2960949.230   6066359.123
10 0 59731  84222.000000  0   -1367132.013   3754544.483   5600912.081
10 0 59731  84342.000000  0   -1372465.720   4482981.119   5036942.911
10 0 59731  84462.000000  0   -1341759.989   5132866.102   4384338.702
10 0 59731  84582.000000  0   -1277022.841   5692200.805   3654556.285
10 0 59731  84702.000000  0   -1181054.502   6150610.697   2860424.103
10 0 59731  84822.000000  0   -1057371.234   6499548.934   2015917.510
10 0 59731  84942.000000  0    -910109.854   6732465.445   1135908.235
10 0 59731  85062.000000  0    -743918.249   6844936.191    235896.604
10 0 59731  85182.000000  0    -563834.435   6834751.887   -668268.661
10 0 59731  85302.000000  0    -375156.875   6701962.479  -1560679.846
10 0 59731  85422.000000  0    -183310.027   6448872.744  -2425660.173
10 0 59731  85542.000000  0       6290.727   6079992.643  -3248044.663
10 0 59731  85662.000000  0     188372.021   5601946.452  -4013448.668
10 0 59731  85782.000000  0     357930.895   5023341.836  -4708519.436
10 0 59731  85902.000000  0     510355.092   4354602.392  -5321165.317
10 0 59731  86022.000000  0     641532.549   3607768.780  -5840759.030
10 0 59731  86142.000000  0     747947.163   2796272.753  -6258312.484
10 0 59731  86262.000000  0     826759.491   1934689.796  -6566620.690
10 0 59731  86382.000000  0     875871.382   1038476.448  -6760374.316
10 0 59732    102.000000  0     893972.942    123695.587  -6836242.010
10 0 59732    222.000000  0     880571.962   -793266.639  -6792921.474
10 0 59732    342.000000  0     836004.600  -1695987.838  -6631157.816
10 0 59732    462.000000  0     761428.101  -2568294.569  -6353731.210
10 0 59732    582.000000  0     658795.734  -3394545.251  -5965416.777
10 0 59732    702.000000  0     530812.697  -4159908.951  -5472911.470
10 0 59732    822.000000  0     380875.480  -4850631.216  -4884728.356
10 0 59732    942.000000  0     212994.706  -5454285.005  -4211061.490
10 0 59732   1062.000000  0      31702.218  -5960002.522  -3463619.912
10 0 59732   1182.000000  0    -158055.403  -6358681.339  -2655432.087
10 0 59732   1302.000000  0    -351034.891  -6643160.895  -1800624.595
10 0 59732   1422.000000  0    -541823.411  -6808364.849   -914176.065
10 0 59732   1542.000000  0    -724971.640  -6851402.974    -11651.467
10 0 59732   1662.000000  0    -895129.543  -6771630.153    891076.849
10 0 59732   1782.000000  0   -1047181.673  -6570661.481   1778115.833
10 0 59732   1902.000000  0   -1176378.305  -6252341.597   2633841.003
10 0 59732   2022.000000  0   -1278458.605  -5822668.488   3443180.820
10 0 59732   2142.000000  0   -1349762.035  -5289673.521   4191889.702
10 0 59732   2262.000000  0   -1387326.252  -4663261.555   4866801.682
10 0 59732   2382.000000  0   -1388969.197  -3955018.342   5456062.620
10 0 59732   2502.000000  0   -1353353.697  -3177986.637   5949338.170
10 0 59732   2622.000000  0   -1280032.106  -2346415.840   6337990.299
10 0 59732   2742.000000  0   -1169470.321  -1475495.089   6615221.235
10 0 59732   2862.000000  0   -1023052.510   -581073.172   6776186.971
10 0 59732   2982.000000  0    -843066.442    320631.839   6818076.824
10 0 59732   3102.000000  0    -632668.254   1213326.233   6740159.538
10 0 59732   3222.000000  0    -395826.744   2080934.844   6543795.627
10 0 59732   3342.000000  0    -137248.739   2907890.315   6232414.909
10 0 59732   3462.000000  0     137712.989   3679412.782   5811460.281
10 0 59732   3582.000000  0     423167.445   4381776.929   5288297.899
10 0 59732   3702.000000  0     712808.096   5002560.861   4672094.395
10 0 59732   3822.000000  0    1000048.174   5530873.647   3973661.225
10 0 59732   3942.000000  0    1278163.528   5957553.340   3205268.762
10 0 59732   4062.000000  0    1540445.423   6275338.634   2380435.508
10 0 59732   4182.000000  0    1780355.427   6479002.332   1513684.169
10 0 59732   4302.000000  0    1991678.256   6565443.392    620280.757
10 0 59732   4422.000000  0    2168670.753   6533735.952   -284042.272
10 0 59732   4542.000000  0    2306201.470   6385134.962  -1183370.895
10 0 59732   4662.000000  0    2399878.434   6123038.706  -2061897.426
10 0 59732   4782.000000  0    2446161.973   5752909.024  -2904205.409
10 0 59732   4902.000000  0    2442459.492   5282150.985  -3695545.828
10 0 59732   5022.000000  0    2387199.710   4719954.380  -4422097.831
10 0 59732   5142.000000  0    2279884.379   4077103.181  -5071207.705
10 0 59732   5262.000000  0    2121117.529   3365758.873  -5631602.756
10 0 59732   5382.000000  0    1912612.228   2599223.146  -6093578.326
10 0 59732   5502.000000  0    1657174.332   1791683.961  -6449155.032
10 0 59732   5622.000000  0    1358665.001    957952.030  -6692204.313
10 0 59732   5742.000000  0    1021942.678    113191.740  -6818544.309
10 0 59732   5862.000000  0     652783.775   -727350.230  -6826004.218
10 0 59732   5982.000000  0     257784.728  -1548614.111  -6714456.000
10 0 59732   6102.000000  0    -155752.468  -2335988.701  -6485815.459
10 0 59732   6222.000000  0    -579951.225  -3075565.042  -6144014.944
10 0 59732   6342.000000  0   -1006506.364  -3754379.667  -5694942.787
10 0 59732   6462.000000  0   -1426841.623  -4360640.722  -5146351.882
10 0 59732   6582.000000  0   -1832277.815  -4883936.449  -4507738.154
10 0 59732   6702.000000  0   -2214208.887  -5315421.235  -3790187.204
10 0 59732   6822.000000  0   -2564282.015  -5647974.191  -3006190.931
10 0 59732   6942.000000  0   -2874577.654  -5876327.008  -2169436.868
10 0 59732   7062.000000  0   -3137785.997  -5997158.440  -1294572.719
10 0 59732   7182.000000  0   -3347375.541  -6009151.882   -396948.703
10 0 59732   7302.000000  0   -3497748.292  -5913012.467    507657.163
10 0 59732   7422.000000  0   -3584377.604  -5711443.419   1403323.896
10 0 59732   7542.000000  0   -3603925.312  -5409081.793   2274277.037
10 0 59732   7662.000000  0   -3554334.408  -5012394.410   3105175.459
10 0 59732   7782.000000  0   -3434895.278  -4529538.093   3881388.853
10 0 59732   7902.000000  0   -3246283.980  -3970187.484   4589260.824
10 0 59732   8022.000000  0   -2990571.771  -3345334.218   5216351.577
10 0 59732   8142.000000  0   -2671206.021  -2667063.770   5751655.516
10 0 59732   8262.000000  0   -2292962.804  -1948315.927   6185790.722
10 0 59732   8382.000000  0   -1861873.324  -1202634.120   6511159.256
10 0 59732   8502.000000  0   -1385124.029   -443905.990   6722075.640
10 0 59732   8622.000000  0    -870934.069    313897.280   6814857.805
10 0 59732   8742.000000  0    -328413.937   1056976.604   6787887.132
10 0 59732   8862.000000  0     232595.855   1771955.969   6641635.679
10 0 59732   8982.000000  0     801703.141   2446123.282   6378658.438
10 0 59732   9102.000000  0    1368156.065   3067656.211   6003550.793
10 0 59732   9222.000000  0    1921045.232   3625830.897   5522873.494
10 0 59732   9342.000000  0    2449513.628   4111211.091   4945044.326
10 0 59732   9462.000000  0    2942971.726   4515813.364   4280196.135
10 0 59732   9582.000000  0    3391310.963   4833243.394   3540002.873
10 0 59732   9702.000000  0    3785112.793   5058803.748   2737479.536
10 0 59732   9822.000000  0    4115851.760   5189570.320   1886751.277
10 0 59732   9942.000000  0    4376079.155   5224428.390   1002799.589
99
